STARLINK-6061           
1 56795U 23078AE  26162.52682218  .00000105  00000+0  16619-4 0  9995
2 56795  69.9999  87.6901 0003114 266.4137  93.6666 14.98331595167237
STARLINK-6049           
1 56796U 23078AF  26162.59366839 -.00002309  00000+0 -18582-3 0  9991
2 56796  69.9994 107.7914 0003155 266.4390  93.6409 14.98329189166743
STARLINK-6058           
1 56797U 23078AG  26162.27240818  .00001211  00000+0  10930-3 0  9993
2 56797  69.9994 108.6699 0003374 266.0836  93.9937 14.98329041166698
STARLINK-5953           
1 56799U 23078AJ  26162.24735966  .00002872  00000+0  24844-3 0  9998
2 56799  69.9994 108.5850 0003399 267.7961  92.2809 14.98324250166699
STARLINK-6036           
1 56800U 23078AK  26162.58531846  .00000366  00000+0  38434-4 0  9996
2 56800  69.9995 107.7622 0002988 269.0996  90.9821 14.98340179166740
STARLINK-6087           
1 56801U 23078AL  26162.53500626 -.00000075  00000+0  15190-5 0  9997
2 56801  70.0001  87.7190 0003040 268.7337  91.3474 14.98330215167238
STARLINK-6029           
1 56803U 23078AN  26162.23899775 -.00000262  00000+0 -14138-4 0  9991
2 56803  69.9995 108.5594 0003274 267.5569  92.5216 14.98328233166695
STARLINK-6069           
1 56804U 23078AP  26162.20955914 -.00001250  00000+0 -96966-4 0  9994
2 56804  70.0004  88.5909 0002690 266.1331  93.9521 14.98329756167854
STARLINK-6064           
1 56805U 23078AQ  26162.21373183 -.00000087  00000+0  47194-6 0  9995
2 56805  70.0000  88.6034 0002824 265.6159  94.4677 14.98339205167186
STARLINK-6072           
1 56806U 23078AR  26162.17593391  .00000243  00000+0  28142-4 0  9999
2 56806  70.0005  68.5910 0002703 269.5729  90.5121 14.98335406167645
STARLINK-6073           
1 56807U 23078AS  26162.52665736 -.00001821  00000+0 -14483-3 0  9999
2 56807  70.0013  87.6880 0003159 265.5890  94.4908 14.98328437167220
STARLINK-6042           
1 56808U 23078AT  26162.39883980  .00001457  00000+0  12986-3 0  9997
2 56808  70.0002  38.2669 0003146 269.8397  90.2402 14.98336611168453
STARLINK-6040           
1 56809U 23078AU  26162.21812326  .00000347  00000+0  36836-4 0  9993
2 56809  69.9997 108.4864 0003252 265.1017  94.9771 14.98333016166697
STARLINK-6031           
1 56810U 23078AV  26162.56862473 -.00000481  00000+0 -32487-4 0  9990
2 56810  69.9994 107.7026 0003114 263.9898  96.0906 14.98337974166744
STARLINK-6065           
1 56812U 23078AX  26162.53517136  .00000033  00000+0  10539-4 0  9997
2 56812  70.0001  87.7249 0002957 268.7146  91.3674 14.98331477167232
STARLINK-6056           
1 56813U 23078AY  26162.54791685  .00000178  00000+0  22699-4 0  9992
2 56813  69.9996 107.6305 0003154 267.2070  92.8728 14.98330870166745
STARLINK-6059           
1 56814U 23078AZ  26162.55609897 -.00000002  00000+0  76284-5 0  9994
2 56814  69.9996 107.6584 0002991 262.2287  97.8533 14.98331252166742
STARLINK-6067           
1 56816U 23078BB  26162.52248307 -.00000143  00000+0 -41830-5 0  9994
2 56816  70.0002  87.6739 0003383 263.7565  96.3209 14.98333982167236
STARLINK-6028           
1 56818U 23078BD  26162.21395160  .00002924  00000+0  25272-3 0  9999
2 56818  70.0006 108.4703 0002965 269.8205  90.2614 14.98337204167388
STARLINK-30119          
1 56823U 23079A   26162.63736988  .00000797  00000+0  38514-4 0  9999
2 56823  43.0067 296.7184 0001939 267.6017  92.4613 15.27578110167684
STARLINK-30120          
1 56824U 23079B   26162.65150069  .00001996  00000+0  82000-4 0  9993
2 56824  42.9987 296.8248 0000657 192.7278 167.3557 15.27585890167579
STARLINK-30084          
1 56825U 23079C   26162.06801223  .00001142  00000+0  51025-4 0  9990
2 56825  43.0029 299.3364 0000994 267.6056  92.4681 15.27578789167177
STARLINK-30114          
1 56826U 23079D   26162.10652435 -.00000759  00000+0 -18052-4 0  9993
2 56826  43.0038 299.4283 0002727 267.3570  92.6969 15.27578321167480
STARLINK-30151          
1 56827U 23079E   26162.09756877  .00000481  00000+0  27010-4 0  9991
2 56827  43.0054 299.5400 0000878 281.4718  78.6035 15.27580043167175
STARLINK-30152          
1 56828U 23079F   26162.10142496 -.00001675  00000+0 -51341-4 0  9992
2 56828  43.0058 299.5786 0001977 275.7415  84.3211 15.27570109167170
STARLINK-30128          
1 56832U 23079K   26162.60069682 -.00000171  00000+0  33462-5 0  9991
2 56832  43.0052 270.8827 0002267 279.3639  80.6957 15.27571162161145
STARLINK-30131          
1 56833U 23079L   26161.63481251  .00019578  00000+0  80107-3 0  9990
2 56833  43.0004 280.1199 0003435 307.2369  52.8168 15.23982832167358
STARLINK-30069          
1 56834U 23079M   26162.09805470  .00000467  00000+0  26533-4 0  9996
2 56834  43.0031 296.1389 0003534 260.7349  99.3103 15.27582016167212
STARLINK-30144          
1 56835U 23079N   26162.66668981  .00071613  00000+0  18305-2 0  9991
2 56835  42.9932 288.9851 0013740 331.9514  98.7294 15.38458956  5840
STARLINK-30142          
1 56836U 23079P   26162.63273189 -.00000087  00000+0  63768-5 0  9995
2 56836  43.0051 293.2719 0001840 272.5369  87.5272 15.27571113167292
