OBJECT_NAME,OBJECT_ID,EPOCH,MEAN_MOTION,ECCENTRICITY,INCLINATION,RA_OF_ASC_NODE,ARG_OF_PERICENTER,MEAN_ANOMALY,EPHEMERIS_TYPE,CLASSIFICATION_TYPE,NORAD_CAT_ID,ELEMENT_SET_NO,REV_AT_EPOCH,BSTAR,MEAN_MOTION_DOT,MEAN_MOTION_DDOT
STARLINK-6061,2023-078AE,2026-06-11T12:38:37.436352,14.98331595,.00031149,69.9999,87.6901,266.4137,93.6666,0,U,56795,999,16723,.16618878E-4,.105E-5,0
STARLINK-6049,2023-078AF,2026-06-11T14:14:52.948896,14.98329189,.00031555,69.9994,107.7914,266.4390,93.6409,0,U,56796,999,16674,-.18581926E-3,-.2309E-4,0
STARLINK-6058,2023-078AG,2026-06-11T06:32:16.066752,14.98329041,.00033741,69.9994,108.6699,266.0836,93.9937,0,U,56797,999,16669,.10929758E-3,.1211E-4,0
STARLINK-5953,2023-078AJ,2026-06-11T05:56:11.874624,14.98324250,.00033991,69.9994,108.5850,267.7961,92.2809,0,U,56799,999,16669,.24844137E-3,.2872E-4,0
STARLINK-6036,2023-078AK,2026-06-11T14:02:51.514944,14.98340179,.00029881,69.9995,107.7622,269.0996,90.9821,0,U,56800,999,16674,.3843394E-4,.366E-5,0
STARLINK-6087,2023-078AL,2026-06-11T12:50:24.540864,14.98330215,.00030404,70.0001,87.7190,268.7337,91.3474,0,U,56801,999,16723,.1518954E-5,-.75E-6,0
STARLINK-6029,2023-078AN,2026-06-11T05:44:09.405600,14.98328233,.0003274,69.9995,108.5594,267.5569,92.5216,0,U,56803,999,16669,-.14137553E-4,-.262E-5,0
STARLINK-6069,2023-078AP,2026-06-11T05:01:45.909696,14.98329756,.00026905,70.0004,88.5909,266.1331,93.9521,0,U,56804,999,16785,-.96965524E-4,-.125E-4,0
STARLINK-6064,2023-078AQ,2026-06-11T05:07:46.430112,14.98339205,.00028249,70.0000,88.6034,265.6159,94.4677,0,U,56805,999,16718,.47194E-6,-.87E-6,0
STARLINK-6072,2023-078AR,2026-06-11T04:13:20.689824,14.98335406,.00027032,70.0005,68.5910,269.5729,90.5121,0,U,56806,999,16764,.28141781E-4,.243E-5,0
STARLINK-6073,2023-078AS,2026-06-11T12:38:23.195904,14.98328437,.00031592,70.0013,87.6880,265.5890,94.4908,0,U,56807,999,16722,-.14482961E-3,-.1821E-4,0
STARLINK-6042,2023-078AT,2026-06-11T09:34:19.758720,14.98336611,.00031465,70.0002,38.2669,269.8397,90.2402,0,U,56808,999,16845,.12986243E-3,.1457E-4,0
STARLINK-6040,2023-078AU,2026-06-11T05:14:05.849664,14.98333016,.00032521,69.9997,108.4864,265.1017,94.9771,0,U,56809,999,16669,.3683648E-4,.347E-5,0
STARLINK-6031,2023-078AV,2026-06-11T13:38:49.176672,14.98337974,.00031142,69.9994,107.7026,263.9898,96.0906,0,U,56810,999,16674,-.32487313E-4,-.481E-5,0
STARLINK-6065,2023-078AX,2026-06-11T12:50:38.805504,14.98331477,.00029573,70.0001,87.7249,268.7146,91.3674,0,U,56812,999,16723,.10538703E-4,.33E-6,0
STARLINK-6056,2023-078AY,2026-06-11T13:09:00.015840,14.98330870,.00031544,69.9996,107.6305,267.2070,92.8728,0,U,56813,999,16674,.22698734E-4,.178E-5,0
STARLINK-6059,2023-078AZ,2026-06-11T13:20:46.951008,14.98331252,.0002991,69.9996,107.6584,262.2287,97.8533,0,U,56814,999,16674,.7628367E-5,-.2E-7,0
STARLINK-6067,2023-078BB,2026-06-11T12:32:22.537248,14.98333982,.00033833,70.0002,87.6739,263.7565,96.3209,0,U,56816,999,16723,-.418304E-5,-.143E-5,0
STARLINK-6028,2023-078BD,2026-06-11T05:08:05.418240,14.98337204,.00029654,70.0006,108.4703,269.8205,90.2614,0,U,56818,999,16738,.2527216E-3,.2924E-4,0
STARLINK-30119,2023-079A,2026-06-11T15:17:48.757632,15.27578110,.00019394,43.0067,296.7184,267.6017,92.4613,0,U,56823,999,16768,.38513949E-4,.797E-5,0
STARLINK-30120,2023-079B,2026-06-11T15:38:09.659616,15.27585890,.00006576,42.9987,296.8248,192.7278,167.3557,0,U,56824,999,16757,.82000015E-4,.1996E-4,0
STARLINK-30084,2023-079C,2026-06-11T01:37:56.256672,15.27578789,.00009944,43.0029,299.3364,267.6056,92.4681,0,U,56825,999,16717,.51024769E-4,.1142E-4,0
STARLINK-30114,2023-079D,2026-06-11T02:33:23.703840,15.27578321,.00027276,43.0038,299.4283,267.3570,92.6969,0,U,56826,999,16748,-.18051717E-4,-.759E-5,0
STARLINK-30151,2023-079E,2026-06-11T02:20:29.941728,15.27580043,.00008785,43.0054,299.5400,281.4718,78.6035,0,U,56827,999,16717,.27010472E-4,.481E-5,0
STARLINK-30152,2023-079F,2026-06-11T02:26:03.116544,15.27570109,.00019777,43.0058,299.5786,275.7415,84.3211,0,U,56828,999,16717,-.51340991E-4,-.1675E-4,0
STARLINK-30128,2023-079K,2026-06-11T14:25:00.205248,15.27571162,.00022672,43.0052,270.8827,279.3639,80.6957,0,U,56832,999,16114,.334621E-5,-.171E-5,0
STARLINK-30131,2023-079L,2026-06-10T15:14:07.800864,15.23982832,.00034357,43.0004,280.1199,307.2369,52.8168,0,U,56833,999,16735,.80106996E-3,.19578E-3,0
STARLINK-30069,2023-079M,2026-06-11T02:21:11.926080,15.27582016,.00035346,43.0031,296.1389,260.7349,99.3103,0,U,56834,999,16721,.26532582E-4,.467E-5,0
STARLINK-30144,2023-079N,2026-06-11T16:00:01.999584,15.38458956,.00137404,42.9932,288.9851,331.9514,98.7294,0,U,56835,999,584,.18305454E-2,.71613E-3,0
STARLINK-30142,2023-079P,2026-06-11T15:11:08.035296,15.27571113,.00018409,43.0051,293.2719,272.5369,87.5272,0,U,56836,999,16729,.6376798E-5,-.87E-6,0
